{"type": "FeatureCollection", "features": [ {"type": "Feature", "properties": {"norad_id": 41785, "name": "ALSAT 1B", "group": "resource", "lat": 12.740966608051528, "lon": 8.204412168402795, "alt_km": 651.474883838825, "timestamp": "2025-12-24T16:52:41.157775+00:00", "meta": {"OBJECT_NAME": "ALSAT 1B", "OBJECT_ID": "2016-059C", "EPOCH": "2025-12-24T07:01:55.003872", "MEAN_MOTION": 14.72087896, "ECCENTRICITY": 0.00107461, "INCLINATION": 97.7805, "RA_OF_ASC_NODE": 9.5835, "ARG_OF_PERICENTER": 71.0803, "MEAN_ANOMALY": 289.1569, "EPHEMERIS_TYPE": 0, "CLASSIFICATION_TYPE": "U", "NORAD_CAT_ID": 41785, "ELEMENT_SET_NO": 999, "REV_AT_EPOCH": 49484, "BSTAR": 0.00011044832, "MEAN_MOTION_DOT": 6.48e-06, "MEAN_MOTION_DDOT": 0}, "tle": {"line1": "1 41785U 16059C   25358.29299773  .00000648  00000+0  11045-3 0  9998", "line2": "2 41785  97.7805   9.5835 0010746  71.0803 289.1569 14.72087896494841"}}, "geometry": {"type": "Point", "coordinates": [8.204412168402795, 12.740966608051528]}}, {"type": "Feature", "properties": {"norad_id": 41787, "name": "PATHFINDER 1", "group": "resource", "lat": -66.07723176015344, "lon": 162.88976698208444, "alt_km": 696.0944302715452, "timestamp": "2025-12-24T16:52:41.157786+00:00", "meta": {"OBJECT_NAME": "PATHFINDER 1", "OBJECT_ID": "2016-059E", "EPOCH": "2025-12-24T05:56:07.636704", "MEAN_MOTION": 14.67340512, "ECCENTRICITY": 0.0029651, "INCLINATION": 97.8138, "RA_OF_ASC_NODE": 0.4869, "ARG_OF_PERICENTER": 46.0975, "MEAN_ANOMALY": 314.2671, "EPHEMERIS_TYPE": 0, "CLASSIFICATION_TYPE": "U", "NORAD_CAT_ID": 41787, "ELEMENT_SET_NO": 999, "REV_AT_EPOCH": 49405, "BSTAR": 0.00014660851, "MEAN_MOTION_DOT": 7.87e-06, "MEAN_MOTION_DDOT": 0}, "tle": {"line1": "1 41787U 16059E   25358.24731061  .00000787  00000+0  14661-3 0  9997", "line2": "2 41787  97.8138   0.4869 0029651  46.0975 314.2671 14.67340512494055"}}, "geometry": {"type": "Point", "coordinates": [162.88976698208444, -66.07723176015344]}}, {"type": "Feature", "properties": {"norad_id": 41790, "name": "SCATSAT 1", "group": "resource", "lat": 19.349450013533882, "lon": 52.63939938814753, "alt_km": 619.4136005846603, "timestamp": "2025-12-24T16:52:41.157796+00:00", "meta": {"OBJECT_NAME": "SCATSAT 1", "OBJECT_ID": "2016-059H", "EPOCH": "2025-12-24T02:10:35.582304", "MEAN_MOTION": 14.78971752, "ECCENTRICITY": 0.00564779, "INCLINATION": 98.1447, "RA_OF_ASC_NODE": 54.902, "ARG_OF_PERICENTER": 92.2518, "MEAN_ANOMALY": 268.5161, "EPHEMERIS_TYPE": 0, "CLASSIFICATION_TYPE": "U", "NORAD_CAT_ID": 41790, "ELEMENT_SET_NO": 999, "REV_AT_EPOCH": 7570, "BSTAR": 0.00019623973, "MEAN_MOTION_DOT": 1.431e-05, "MEAN_MOTION_DDOT": 0}, "tle": {"line1": "1 41790U 16059H   25358.09068961  .00001431  00000+0  19624-3 0  9997", "line2": "2 41790  98.1447  54.9020 0056477  92.2518 268.5161 14.78971752 75701"}}, "geometry": {"type": "Point", "coordinates": [52.63939938814753, 19.349450013533882]}}, {"type": "Feature", "properties": {"norad_id": 41875, "name": "GOKTURK 1A", "group": "resource", "lat": 49.789762455520226, "lon": 80.6599089583507, "alt_km": 679.0415758780855, "timestamp": "2025-12-24T16:52:41.157806+00:00", "meta": {"OBJECT_NAME": "GOKTURK 1A", "OBJECT_ID": "2016-073A", "EPOCH": "2025-12-24T06:26:18.312000", "MEAN_MOTION": 14.62791948, "ECCENTRICITY": 0.00012862, "INCLINATION": 98.1429, "RA_OF_ASC_NODE": 250.4797, "ARG_OF_PERICENTER": 81.4922, "MEAN_ANOMALY": 278.6426, "EPHEMERIS_TYPE": 0, "CLASSIFICATION_TYPE": "U", "NORAD_CAT_ID": 41875, "ELEMENT_SET_NO": 999, "REV_AT_EPOCH": 48325, "BSTAR": 0.0001062738, "MEAN_MOTION_DOT": 4.95e-06, "MEAN_MOTION_DDOT": 0}, "tle": {"line1": "1 41875U 16073A   25358.26826750  .00000495  00000+0  10627-3 0  9997", "line2": "2 41875  98.1429 250.4797 0001286  81.4922 278.6426 14.62791948483255"}}, "geometry": {"type": "Point", "coordinates": [80.6599089583507, 49.789762455520226]}}, {"type": "Feature", "properties": {"norad_id": 41877, "name": "RESOURCESAT-2A", "group": "resource", "lat": -27.376364713942248, "lon": -116.09811548888996, "alt_km": 824.4857763036925, "timestamp": "2025-12-24T16:52:41.157817+00:00", "meta": {"OBJECT_NAME": "RESOURCESAT-2A", "OBJECT_ID": "2016-074A", "EPOCH": "2025-12-24T07:27:30.682656", "MEAN_MOTION": 14.21605573, "ECCENTRICITY": 0.00016067, "INCLINATION": 98.7742, "RA_OF_ASC_NODE": 68.099, "ARG_OF_PERICENTER": 203.1315, "MEAN_ANOMALY": 156.979, "EPHEMERIS_TYPE": 0, "CLASSIFICATION_TYPE": "U", "NORAD_CAT_ID": 41877, "ELEMENT_SET_NO": 999, "REV_AT_EPOCH": 46945, "BSTAR": 0.00020622289, "MEAN_MOTION_DOT": 4.08e-06, "MEAN_MOTION_DDOT": 0}, "tle": {"line1": "1 41877U 16074A   25358.31077179  .00000408  00000+0  20622-3 0  9999", "line2": "2 41877  98.7742  68.0990 0001606 203.1315 156.9790 14.21605573469455"}}, "geometry": {"type": "Point", "coordinates": [-116.09811548888996, -27.376364713942248]}}, {"type": "Feature", "properties": {"norad_id": 41948, "name": "CARTOSAT-2D", "group": "resource", "lat": 81.77443361098203, "lon": -59.33930324064746, "alt_km": 497.54092012072124, "timestamp": "2025-12-24T16:52:41.157827+00:00", "meta": {"OBJECT_NAME": "CARTOSAT-2D", "OBJECT_ID": "2017-008A", "EPOCH": "2025-12-24T06:58:59.890944", "MEAN_MOTION": 15.19176841, "ECCENTRICITY": 0.00053626, "INCLINATION": 97.4373, "RA_OF_ASC_NODE": 55.612, "ARG_OF_PERICENTER": 120.5427, "MEAN_ANOMALY": 239.6338, "EPHEMERIS_TYPE": 0, "CLASSIFICATION_TYPE": "U", "NORAD_CAT_ID": 41948, "ELEMENT_SET_NO": 999, "REV_AT_EPOCH": 49102, "BSTAR": 0.00021180896, "MEAN_MOTION_DOT": 4.388e-05, "MEAN_MOTION_DDOT": 0}, "tle": {"line1": "1 41948U 17008A   25358.29097096  .00004388  00000+0  21181-3 0  9995", "line2": "2 41948  97.4373  55.6120 0005362 120.5427 239.6338 15.19176841491020"}}, "geometry": {"type": "Point", "coordinates": [-59.33930324064746, 81.77443361098203]}}, {"type": "Feature", "properties": {"norad_id": 42063, "name": "SENTINEL-2B", "group": "resource", "lat": -31.98501482682845, "lon": -114.42309406688314, "alt_km": 795.4847587055092, "timestamp": "2025-12-24T16:52:41.157837+00:00", "meta": {"OBJECT_NAME": "SENTINEL-2B", "OBJECT_ID": "2017-013A", "EPOCH": "2025-12-24T07:29:50.906400", "MEAN_MOTION": 14.30815606, "ECCENTRICITY": 0.0001201, "INCLINATION": 98.5703, "RA_OF_ASC_NODE": 70.5956, "ARG_OF_PERICENTER": 92.4833, "MEAN_ANOMALY": 267.6487, "EPHEMERIS_TYPE": 0, "CLASSIFICATION_TYPE": "U", "NORAD_CAT_ID": 42063, "ELEMENT_SET_NO": 999, "REV_AT_EPOCH": 45963, "BSTAR": 0.00011270124, "MEAN_MOTION_DOT": 2.52e-06, "MEAN_MOTION_DDOT": 0}, "tle": {"line1": "1 42063U 17013A   25358.31239475  .00000252  00000+0  11270-3 0  9996", "line2": "2 42063  98.5703  70.5956 0001201  92.4833 267.6487 14.30815606459635"}}, "geometry": {"type": "Point", "coordinates": [-114.42309406688314, -31.98501482682845]}}, {"type": "Feature", "properties": {"norad_id": 42767, "name": "CARTOSAT-2E", "group": "resource", "lat": 2.630832106708651, "lon": 55.788043616379035, "alt_km": 512.8375172758288, "timestamp": "2025-12-24T16:52:41.157847+00:00", "meta": {"OBJECT_NAME": "CARTOSAT-2E", "OBJECT_ID": "2017-036C", "EPOCH": "2025-12-24T08:57:44.739072", "MEAN_MOTION": 15.19183183, "ECCENTRICITY": 0.0002628, "INCLINATION": 97.4537, "RA_OF_ASC_NODE": 55.8073, "ARG_OF_PERICENTER": 177.5767, "MEAN_ANOMALY": 182.5481, "EPHEMERIS_TYPE": 0, "CLASSIFICATION_TYPE": "U", "NORAD_CAT_ID": 42767, "ELEMENT_SET_NO": 999, "REV_AT_EPOCH": 47160, "BSTAR": 0.00017875, "MEAN_MOTION_DOT": 3.692e-05, "MEAN_MOTION_DDOT": 0}, "tle": {"line1": "1 42767U 17036C   25358.37343448  .00003692  00000+0  17875-3 0  9992", "line2": "2 42767  97.4537  55.8073 0002628 177.5767 182.5481 15.19183183471606"}}, "geometry": {"type": "Point", "coordinates": [55.788043616379035, 2.630832106708651]}}, {"type": "Feature", "properties": {"norad_id": 42920, "name": "FORMOSAT-5", "group": "resource", "lat": -4.740222574824317, "lon": 73.4700223619059, "alt_km": 727.2651492124542, "timestamp": "2025-12-24T16:52:41.157857+00:00", "meta": {"OBJECT_NAME": "FORMOSAT-5", "OBJECT_ID": "2017-049A", "EPOCH": "2025-12-24T05:18:47.646720", "MEAN_MOTION": 14.50766963, "ECCENTRICITY": 0.00098295, "INCLINATION": 98.2439, "RA_OF_ASC_NODE": 72.3092, "ARG_OF_PERICENTER": 262.2078, "MEAN_ANOMALY": 97.8001, "EPHEMERIS_TYPE": 0, "CLASSIFICATION_TYPE": "U", "NORAD_CAT_ID": 42920, "ELEMENT_SET_NO": 999, "REV_AT_EPOCH": 44130, "BSTAR": 6.9967239e-05, "MEAN_MOTION_DOT": 2.32e-06, "MEAN_MOTION_DDOT": 0}, "tle": {"line1": "1 42920U 17049A   25358.22138480  .00000232  00000+0  69967-4 0  9996", "line2": "2 42920  98.2439  72.3092 0009829 262.2078  97.8001 14.50766963441306"}}, "geometry": {"type": "Point", "coordinates": [73.4700223619059, -4.740222574824317]}}, {"type": "Feature", "properties": {"norad_id": 42969, "name": "SENTINEL-5P", "group": "resource", "lat": 54.77589739596203, "lon": 129.8262969888528, "alt_km": 821.1163229180174, "timestamp": "2025-12-24T16:52:41.157869+00:00", "meta": {"OBJECT_NAME": "SENTINEL-5P", "OBJECT_ID": "2017-064A", "EPOCH": "2025-12-24T06:08:42.702720", "MEAN_MOTION": 14.19520235, "ECCENTRICITY": 0.0001047, "INCLINATION": 98.7802, "RA_OF_ASC_NODE": 296.7388, "ARG_OF_PERICENTER": 91.1389, "MEAN_ANOMALY": 268.9907, "EPHEMERIS_TYPE": 0, "CLASSIFICATION_TYPE": "U", "NORAD_CAT_ID": 42969, "ELEMENT_SET_NO": 999, "REV_AT_EPOCH": 42474, "BSTAR": 5.7067925e-05, "MEAN_MOTION_DOT": 7.6e-07, "MEAN_MOTION_DDOT": 0}, "tle": {"line1": "1 42969U 17064A   25358.25604980  .00000076  00000+0  57068-4 0  9997", "line2": "2 42969  98.7802 296.7388 0001047  91.1389 268.9907 14.19520235424746"}}, "geometry": {"type": "Point", "coordinates": [129.8262969888528, 54.77589739596203]}}]}